SAR-LUPE 2              
1 31797U 07030A   26155.94482016  .00012032  00000+0  22931-3 0  9997
2 31797  98.1029 258.8813 0009016 159.0489 201.1131 15.48323746 55041
SAPPHIRE                
1 39088U 13009C   26155.05544069  .00000126  00000+0  58949-4 0  9990
2 39088  98.4257 334.8234 0010031 290.2950  69.7158 14.35236900694697
PRAETORIAN SDA_602      
1 65565U 25203A   26155.73712979  .00000066  00000+0  48376-4 0  9996
2 65565  81.3040  22.3026 0005180 220.6956 139.3814 13.84341913 36975
PRAETORIAN SDA_603      
1 65566U 25203B   26155.68758288  .00000214  00000+0  18211-3 0  9993
2 65566  81.3042  22.2566 0008748 223.7267 136.3198 13.83904801 36970
PRAETORIAN SDA_604      
1 65567U 25203C   26155.69955547  .00000134  00000+0  11171-3 0  9991
2 65567  81.3062  22.6381 0004712 229.1938 130.8810 13.83046288 36958
PRAETORIAN SDA_605      
1 65568U 25203D   26155.74069796  .00000091  00000+0  71830-4 0  9991
2 65568  81.3026  22.2752 0007471 218.9397 141.1222 13.83433372 36975
PRAETORIAN SDA_606      
1 65569U 25203E   26155.72300410  .00000103  00000+0  82846-4 0  9994
2 65569  81.3062  22.5079 0005123 217.1061 142.9742 13.83406404 36963
PRAETORIAN SDA_607      
1 65570U 25203F   26155.73892828  .00000223  00000+0  18939-3 0  9990
2 65570  81.3050  22.1756 0008025 224.0478 136.0040 13.84283483 36981
PRAETORIAN SDA_608      
1 65571U 25203G   26155.13369964  .00000104  00000+0  83254-4 0  9996
2 65571  81.3015  22.8929 0005196 230.1372 129.9328 13.83815704 36884
PRAETORIAN SDA_609      
1 65572U 25203H   26155.72096019  .00000230  00000+0  19573-3 0  9992
2 65572  81.3062  22.3350 0006263 219.9792 140.0904 13.84283496 36979
PRAETORIAN SDA_610      
1 65573U 25203J   26155.69219737  .00000062  00000+0  45621-4 0  9990
2 65573  81.3016  22.3343 0005883 225.2540 134.8138 13.83851035 36967
PRAETORIAN SDA_611      
1 65574U 25203K   26155.68807949  .00000047  00000+0  32430-4 0  9995
2 65574  81.3013  22.4939 0004798 233.8297 126.2416 13.83308500 36952
PRAETORIAN SDA_612      
1 65575U 25203L   26155.69328801  .00000225  00000+0  18853-3 0  9992
2 65575  81.3035  22.1060 0008538 222.8355 137.2138 13.85037980 36987
PRAETORIAN SDA_613      
1 65576U 25203M   26155.68991166  .00000067  00000+0  50630-4 0  9996
2 65576  81.3008  22.4791 0004974 220.3219 139.7568 13.82764209 36953
PRAETORIAN SDA_614      
1 65577U 25203N   26155.75236920  .00000103  00000+0  80723-4 0  9992
2 65577  81.3023  22.1257 0006419 219.7744 140.2943 13.84777661 36992
PRAETORIAN SDA_615      
1 65578U 25203P   26155.72618490  .00000242  00000+0  20526-3 0  9994
2 65578  81.3034  22.1060 0008294 221.7175 138.3350 13.84435035 36986
PRAETORIAN SDA_616      
1 65579U 25203Q   26155.68691914  .00000204  00000+0  17546-3 0  9998
2 65579  81.3070  22.6316 0004689 231.0666 129.0073 13.83267189 36957
PRAETORIAN SDA_617      
1 65580U 25203R   26155.12875514  .00000121  00000+0  99525-4 0  9995
2 65580  81.3046  22.9798 0006649 222.1078 137.9568 13.83149829 36884
PRAETORIAN SDA_618      
1 65581U 25203S   26155.69433212  .00000156  00000+0  12861-3 0  9998
2 65581  81.3027  22.0703 0008996 224.3604 135.6833 13.84668509 36980
PRAETORIAN SDA_619      
1 65582U 25203T   26155.72246926 -.00012601  00000+0 -11400-1 0  9993
2 65582  81.3050  22.3210 0007074 224.2660 135.7932 13.83865838 37604
PRAETORIAN SDA_620      
1 65583U 25203U   26155.74878956  .00000207  00000+0  17663-3 0  9996
2 65583  81.3037  22.3154 0006993 216.4253 143.6428 13.83617278 36977
PRAETORIAN SDA_621      
1 65584U 25203V   26155.72422226  .00000107  00000+0  86023-4 0  9996
2 65584  81.3029  22.2612 0006735 214.1787 145.8937 13.83800256 36977
PRAETORIAN SDA_601      
1 65585U 25203W   26155.68914998 -.00000077  00000+0 -81561-4 0  9994
2 65585  81.3043  22.5765 0004731 234.1918 125.8799 13.83166696 36953
